0 COSMOS 1083
1 11298U 79024C   13281.07193243  .00000013  00000-0  18514-3 0  3492
2 11298 074.0320 293.9892 0013745 106.7545 282.7658 12.52545770580660
0 COSMOS 1083
1 11298U 79024C   13283.07428637  .00000012  00000-0  18022-3 0  3507
2 11298 074.0318 291.3157 0013745 103.5861 311.8540 12.52545801580916
0 COSMOS 1083
1 11298U 79024C   13287.49200808 -.00000025  00000-0 -56700-4 0  3529
2 11298 074.0318 285.4172 0013749 096.4891 072.5155 12.52546385581466
0 COSMOS 1083
1 11298U 79024C   13289.71815025 -.00000028  00000-0 -76319-4 0  3531
2 11298 074.0321 282.4448 0013756 093.0453 030.6436 12.52546377581747
0 COSMOS 1083
1 11298U 79024C   13292.43109476 -.00000005  00000-0  66242-4 0  3549
2 11298 074.0325 278.8224 0013775 088.7184 023.9927 12.52546054582085
0 COSMOS 1083
1 11298U 79024C   13294.67020456  .00000015  00000-0  19767-3 0  3557
2 11298 074.0327 275.8331 0013788 085.1301 040.7175 12.52545937582361
